[{"OBJECT_NAME":"EOS-4","OBJECT_ID":"2022-013A","EPOCH":"2026-03-08T11:43:14.619360","MEAN_MOTION":15.12745091,"ECCENTRICITY":0.0001929,"INCLINATION":97.5144,"RA_OF_ASC_NODE":75.6612,"ARG_OF_PERICENTER":90.8949,"MEAN_ANOMALY":269.2503,"EPHEMERIS_TYPE":0,"CLASSIFICATION_TYPE":"U","NORAD_CAT_ID":51656,"ELEMENT_SET_NO":999,"REV_AT_EPOCH":22426,"BSTAR":0.00016489167,"MEAN_MOTION_DOT":2.825e-5,"MEAN_MOTION_DDOT":0},{"OBJECT_NAME":"STARLINK-5347","OBJECT_ID":"2023-090AN","EPOCH":"2026-03-09T22:00:01.999584","MEAN_MOTION":15.10072619,"ECCENTRICITY":0.00014507,"INCLINATION":43.0004,"RA_OF_ASC_NODE":260.5054,"ARG_OF_PERICENTER":304.2293,"MEAN_ANOMALY":152.4326,"EPHEMERIS_TYPE":0,"CLASSIFICATION_TYPE":"U","NORAD_CAT_ID":57137,"ELEMENT_SET_NO":999,"REV_AT_EPOCH":573,"BSTAR":0.0065092627,"MEAN_MOTION_DOT":0.00109267,"MEAN_MOTION_DDOT":0}]
